#aV2006  1  4  0  0   .00000000      96 DD+AD WGS84 FIT  NGA
## 1356 259200.00000000   900.00000000 53739  .0000000000000
+   29     1  2  3  4  5  6  7  8  9 10 11 13 14 15 16 17 18
+         19 20 21 22 23 24 25 26 27 28 29 30  0  0  0  0  0
+          0  0  0  0  0  0  0  0  0  0  0  0  0  0  0  0  0
+          0  0  0  0  0  0  0  0  0  0  0  0  0  0  0  0  0
+          0  0  0  0  0  0  0  0  0  0  0  0  0  0  0  0  0
++         0  0  0  0  0  0  0  0  0  0  0  0  0  0  0  0  0
++         0  0  0  0  0  0  0  0  0  0  0  0  0  0  0  0  0
++         0  0  0  0  0  0  0  0  0  0  0  0  0  0  0  0  0
++         0  0  0  0  0  0  0  0  0  0  0  0  0  0  0  0  0
++         0  0  0  0  0  0  0  0  0  0  0  0  0  0  0  0  0
%c cc cc ccc ccc cccc cccc cccc cccc ccccc ccccc ccccc ccccc
%c cc cc ccc ccc cccc cccc cccc cccc ccccc ccccc ccccc ccccc
%f  0.0000000  0.000000000  0.00000000000  0.000000000000000
%f  0.0000000  0.000000000  0.00000000000  0.000000000000000
%i    0    0    0    0      0      0      0      0         0
%i    0    0    0    0      0      0      0      0         0
/*      NGA, ST. LOUIS,MO.                                  
/*   EPHEMERIS COMPUTED FROM  3 DAYS OF DATA                
/* CCCCCCCCCCCCCCCCCCCCCCCCCCCCCCCCCCCCCCCCCCCCCCCCCCCCCCCCC
/* CCCCCCCCCCCCCCCCCCCCCCCCCCCCCCCCCCCCCCCCCCCCCCCCCCCCCCCCC
*  2006  1  4  7 15   .00000000                                                 
P  1  -6283.158853 -14216.785051  21743.047868     28.772442                    
V  1  27034.221850  -1161.971224   7073.620132       .025336                    
P  2  12266.281215  23294.278861   3857.461740    -22.983861                    
V  2  -5341.295193  -2706.417762  30951.945348       .009821                    
P  3 -13051.959829 -12825.058192 -19500.852897     63.861936                    
V  3  23969.738826  -5116.879609 -12481.661049       .029655                    
P  4   2177.258198  22153.578732  14190.373229    107.208400                    
V  4 -12009.174540 -13958.355570  23936.359675       .122434                    
P  5  16568.640306   -904.621343  20515.497630    454.583646                    
V  5  -8855.398527  25115.274835   8347.208234       .228853                    
P  6  24738.633656  -7175.504383  -6461.709346    183.489448                    
V  6   8755.156873   2648.710165  29623.952322       .438547                    
P  7  -5579.680161  16121.735722  20762.844396    462.518255                    
V  7 -25457.312620   2109.185240  -8785.259069       .100962                    
P  8  -4949.136660  17393.838552 -19462.815752    -52.305363                    
V  8 -13899.348679 -20208.246257 -15031.201523      -.012740                    
P  9  19761.892225  11823.509783  12956.360308      2.177047                    
V  9   8258.067713  15269.272295 -25204.697715       .014986                    
P 10   6592.127040  16399.758640 -19803.307192     76.527224                    
V 10 -12567.391014  21680.647365  14122.865159       .006266                    
P 11 -21568.108960  -8894.791097  12852.562066    296.429104                    
V 11  -8283.873478 -14701.411818 -23728.963613       .030092                    
P 13 -23973.967159   6975.227482  -9044.137681     32.969262                    
V 13 -11429.873669  -1247.222003  29626.334572       .022247                    
P 14   9057.878418 -14200.574117  20591.735904    -21.504127                    
V 14  25942.761944   -673.148106 -11961.397871       .005236                    
P 15   6490.567968 -16649.020239 -19701.932021    544.592987                    
V 15  13364.442554  20901.788330 -13738.168451       .058879                    
P 16   -945.758944 -21679.566801 -15178.434705     20.407916                    
V 16  10586.687748 -16442.747851  22789.574666       .015393                    
P 17 -10920.710628  14361.270258  19440.665046     18.313224                    
V 17 -24800.817184    316.097638 -14221.349653       .102683                    
P 18  17589.589849 -16553.859204 -10612.353902   -212.729864                    
V 18  -4210.950632  13341.066356 -27829.090712      -.023474                    
P 19 -23251.523602  -7261.979917 -10527.964774    -24.299552                    
V 19  13492.897635  -2626.175729 -27695.762568       .006377                    
P 20 -16780.286848   1819.591935  20419.897847    -36.214950                    
V 20  10465.123255 -23955.761597  10718.277317       .010450                    
P 21  13228.754182  -8134.106473 -21505.013902    164.747533                    
V 21  14520.849347  23309.799607   -384.015662       .037811                    
P 22  11772.484730 -23745.404777   1917.212570     59.836586                    
V 22   3642.145732   -526.134861 -31548.110214       .021029                    
P 23 -26492.114326   -122.668351   2738.170693    156.066226                    
V 23   3393.693230  -2721.756387  31537.894567      -.016849                    
P 24  -9921.739903  12527.322184  21425.007937     74.658623                    
V 24 -14223.750550 -22569.702310   6919.007512       .030950                    
P 25  -7179.375189 -22655.078799  12156.650811   -112.562223                    
V 25  11314.122961   9980.577357  26238.320913     -1.106327                    
P 26  20527.145608   9044.248387 -15037.943919     -8.999753                    
V 26 -18114.784312   1702.936167 -23721.555839      -.073896                    
P 27 -12326.207841   8608.901663 -21315.488584     30.061411                    
V 27 -17277.394587 -22640.212494    458.783918       .015575                    
P 28 -12822.092976  22992.365469  -1243.831853     35.769062                    
V 28  -1932.125470  -3140.971961 -31914.396995      -.005965                    
P 29  16924.141934  10358.421121 -17523.080364    485.565708                    
V 29 -22446.255205   2892.052579 -19458.970285       .146128                    
P 30  17704.106522 -11613.218914  15689.731676     10.706296                    
V 30  -6227.386174  19700.668783  21350.766558       .056008                    
EOF
